SL-16 R/B               
1 28353U 04021B   16039.51087660  .00000137  00000-0  96820-4 0  9990
2 28353  71.0016  35.8550 0007043 243.0625 116.9778 14.14176475602221
CZ-2C R/B               
1 28480U 04046B   16040.20228009  .00000113  00000-0  58924-4 0  9997
2 28480  98.1668 162.7429 0141122 242.3597 167.0476 14.25567390583858
ARIANE 5 R/B            
1 28499U 04049H   16040.22171037  .00000276  00000-0  41752-4 0  9991
2 28499  98.1236 113.1809 0092948  10.4149  64.5912 14.79628326600941
CZ-2D R/B               
1 28738U 05024B   16040.49319088  .00001960  00000-0  12379-3 0  9993
2 28738  97.5586  79.3894 0010833 260.0504  99.9503 15.10203014581277
SUZAKU (ASTRO-EII)      
1 28773U 05025A   16038.97421955  .00003277  00000-0  17038-3 0  9990
2 28773  31.3828 264.4140 0004763  60.4361 299.6760 15.14227750582182
ALOS (DAICHI)           
1 28931U 06002A   16040.56213407  .00000654  00000-0  13895-3 0  9994
2 28931  97.9027  85.0809 0002451  85.2506 274.8977 14.62115361535329
H-2A R/B                
1 28932U 06002B   16039.70734581  .00001274  00000-0  12632-3 0  9997
2 28932  98.2278 296.6638 0092275 130.2782 287.9970 14.90637506544129
AKARI (ASTRO-F)         
1 28939U 06005A   16040.16170172  .00010761  00000-0  36766-3 0  9994
2 28939  98.2212 183.9988 0119928  94.7154 266.7788 15.23792140537747
RESURS-DK 1             
1 29228U 06021A   16040.56803071  .00000843  00000-0  72029-4 0  9992
2 29228  69.9375 273.6416 0004201 333.7453  74.1144 15.01766016533980
GENESIS 1               
1 29252U 06029A   16039.78089576  .00003678  00000-0  19939-3 0  9994
2 29252  64.5067  98.9840 0042285 241.0609 236.0993 15.15548019526870
CZ-4B R/B               
1 29507U 06046C   16040.51763282  .00000838  00000-0  72346-4 0  9999
2 29507  97.7824  41.8295 0037045 125.2385 235.2315 14.99510206507040
CZ-2C R/B               
1 31114U 07010B   16040.47738549  .00000051  00000-0  43054-4 0  9992
2 31114  98.4155 321.9343 0059178 207.4501 152.3546 14.19187968457486
COSMO-SKYMED 1          
1 31598U 07023A   16040.40312094  .00000304  00000-0  44725-4 0  9995
2 31598  97.8789 225.8257 0001452  84.1490 275.9918 14.82154651469305
GENESIS 2               
1 31789U 07028A   16039.62907068  .00003512  00000-0  19294-3 0  9991
2 31789  64.5068 135.6945 0051688 283.7267  75.8104 15.14796100473952
COSMOS 2428             
1 31792U 07029A   16040.41879727  .00000137  00000-0  10000-3 0  9991
2 31792  70.9549   8.2316 0010748 300.4363 148.9171 14.12435175444351
SL-16 R/B               
1 31793U 07029B   16040.44624395 -.00000260  00000-0 -11077-3 0  9998
2 31793  70.9776 346.2448 0002581 262.5128 235.8173 14.14353829444904
KORONAS-FOTON           
1 33504U 09003A   16040.15893400  .00002438  00000-0  13204-3 0  9998
2 33504  82.4451   3.6292 0020439  21.0213 339.1854 15.14001281386700
TIANGONG 1              
1 37820U 11053A   16040.21841668  .00017037  00000-0  21784-3 0  9990
2 37820  42.7648 296.4872 0011293 246.5466 256.3943 15.58858678250426
CUSAT 2 & FALCON 9 R/B  
1 39271U 13055G   16039.85588492  .00023832  00000-0  65486-3 0  9994
2 39271  80.9744 156.8670 0670828 215.9308 139.4975 14.27966509121818
